CCSDS_OMM_VERS = 2.0
CREATION_DATE  = 
ORIGINATOR     = 

OBJECT_NAME    = HRC MONOBLOCK CAMERA
OBJECT_ID      = 1998-067XR
CENTER_NAME    = EARTH
REF_FRAME      = TEME
TIME_SYSTEM    = UTC
MEAN_ELEMENT_THEORY = SGP/SGP4

EPOCH          = 2026-03-17T02:50:58.951104
MEAN_MOTION    = 15.63041663
ECCENTRICITY   = .00038342
INCLINATION    = 51.6290
RA_OF_ASC_NODE = 28.0146
ARG_OF_PERICENTER = 127.1537
MEAN_ANOMALY   = 232.9808

EPHEMERIS_TYPE = 0
CLASSIFICATION_TYPE = U
NORAD_CAT_ID   = 66052
ELEMENT_SET_NO = 999
REV_AT_EPOCH   = 2355
BSTAR          = .43153999E-3
MEAN_MOTION_DOT = .39682E-3
MEAN_MOTION_DDOT = 0

CCSDS_OMM_VERS = 2.0
CREATION_DATE  = 
ORIGINATOR     = 

OBJECT_NAME    = HTV-X1
OBJECT_ID      = 2025-241A
CENTER_NAME    = EARTH
REF_FRAME      = TEME
TIME_SYSTEM    = UTC
MEAN_ELEMENT_THEORY = SGP/SGP4

EPOCH          = 2026-03-14T08:15:41.712192
MEAN_MOTION    = 15.22910160
ECCENTRICITY   = .00057412
INCLINATION    = 51.6358
RA_OF_ASC_NODE = 50.7100
ARG_OF_PERICENTER = 187.4047
MEAN_ANOMALY   = 172.6847

EPHEMERIS_TYPE = 0
CLASSIFICATION_TYPE = U
NORAD_CAT_ID   = 66174
ELEMENT_SET_NO = 999
REV_AT_EPOCH   = 2166
BSTAR          = .57086916E-3
MEAN_MOTION_DOT = .13268E-3
MEAN_MOTION_DDOT = 0

CCSDS_OMM_VERS = 2.0
CREATION_DATE  = 
ORIGINATOR     = 

OBJECT_NAME    = SZ-21 MODULE
OBJECT_ID      = 2025-246C
CENTER_NAME    = EARTH
REF_FRAME      = TEME
TIME_SYSTEM    = UTC
MEAN_ELEMENT_THEORY = SGP/SGP4

EPOCH          = 2026-03-16T15:07:24.413088
MEAN_MOTION    = 15.69116640
ECCENTRICITY   = .00007252
INCLINATION    = 41.4745
RA_OF_ASC_NODE = 160.6185
ARG_OF_PERICENTER = 306.4076
MEAN_ANOMALY   = 53.6699

EPHEMERIS_TYPE = 0
CLASSIFICATION_TYPE = U
NORAD_CAT_ID   = 66515
ELEMENT_SET_NO = 999
REV_AT_EPOCH   = 1916
BSTAR          = .27011342E-3
MEAN_MOTION_DOT = .32043E-3
MEAN_MOTION_DDOT = 0

CCSDS_OMM_VERS = 2.0
CREATION_DATE  = 
ORIGINATOR     = 

OBJECT_NAME    = SHENZHOU-22
OBJECT_ID      = 2025-272A
CENTER_NAME    = EARTH
REF_FRAME      = TEME
TIME_SYSTEM    = UTC
MEAN_ELEMENT_THEORY = SGP/SGP4

EPOCH          = 2026-03-17T06:22:25.768128
MEAN_MOTION    = 15.61083168
ECCENTRICITY   = .00061505
INCLINATION    = 41.4671
RA_OF_ASC_NODE = 162.0513
ARG_OF_PERICENTER = 318.9181
MEAN_ANOMALY   = 41.1194

EPHEMERIS_TYPE = 0
CLASSIFICATION_TYPE = U
NORAD_CAT_ID   = 66645
ELEMENT_SET_NO = 999
REV_AT_EPOCH   = 26752
BSTAR          = .24645816E-3
MEAN_MOTION_DOT = .21102E-3
MEAN_MOTION_DDOT = 0

CCSDS_OMM_VERS = 2.0
CREATION_DATE  = 
ORIGINATOR     = 

OBJECT_NAME    = SOYUZ-MS 28
OBJECT_ID      = 2025-275A
CENTER_NAME    = EARTH
REF_FRAME      = TEME
TIME_SYSTEM    = UTC
MEAN_ELEMENT_THEORY = SGP/SGP4

EPOCH          = 2026-03-17T04:38:23.008704
MEAN_MOTION    = 15.48337753
ECCENTRICITY   = .00062264
INCLINATION    = 51.6337
RA_OF_ASC_NODE = 35.2624
ARG_OF_PERICENTER = 201.0018
MEAN_ANOMALY   = 159.0715

EPHEMERIS_TYPE = 0
CLASSIFICATION_TYPE = U
NORAD_CAT_ID   = 66664
ELEMENT_SET_NO = 999
REV_AT_EPOCH   = 55452
BSTAR          = .23613801E-3
MEAN_MOTION_DOT = .1229E-3
MEAN_MOTION_DDOT = 0

CCSDS_OMM_VERS = 2.0
CREATION_DATE  = 
ORIGINATOR     = 

OBJECT_NAME    = DUPLEX
OBJECT_ID      = 1998-067XS
CENTER_NAME    = EARTH
REF_FRAME      = TEME
TIME_SYSTEM    = UTC
MEAN_ELEMENT_THEORY = SGP/SGP4

EPOCH          = 2026-03-17T03:53:44.784096
MEAN_MOTION    = 15.56715573
ECCENTRICITY   = .00028723
INCLINATION    = 51.6297
RA_OF_ASC_NODE = 32.0587
ARG_OF_PERICENTER = 144.1909
MEAN_ANOMALY   = 215.9276

EPHEMERIS_TYPE = 0
CLASSIFICATION_TYPE = U
NORAD_CAT_ID   = 66906
ELEMENT_SET_NO = 999
REV_AT_EPOCH   = 1629
BSTAR          = .37023225E-3
MEAN_MOTION_DOT = .26558E-3
MEAN_MOTION_DDOT = 0

CCSDS_OMM_VERS = 2.0
CREATION_DATE  = 
ORIGINATOR     = 

OBJECT_NAME    = ISS OBJECT XT
OBJECT_ID      = 1998-067XT
CENTER_NAME    = EARTH
REF_FRAME      = TEME
TIME_SYSTEM    = UTC
MEAN_ELEMENT_THEORY = SGP/SGP4

EPOCH          = 2026-03-17T03:42:49.776192
MEAN_MOTION    = 15.71838586
ECCENTRICITY   = .00048985
INCLINATION    = 51.6248
RA_OF_ASC_NODE = 27.4856
ARG_OF_PERICENTER = 129.1683
MEAN_ANOMALY   = 230.9750

EPHEMERIS_TYPE = 0
CLASSIFICATION_TYPE = U
NORAD_CAT_ID   = 66907
ELEMENT_SET_NO = 999
REV_AT_EPOCH   = 1635
BSTAR          = .11555054E-2
MEAN_MOTION_DOT = .155646E-2
MEAN_MOTION_DDOT = 0

CCSDS_OMM_VERS = 2.0
CREATION_DATE  = 
ORIGINATOR     = 

OBJECT_NAME    = ISS OBJECT XU
OBJECT_ID      = 1998-067XU
CENTER_NAME    = EARTH
REF_FRAME      = TEME
TIME_SYSTEM    = UTC
MEAN_ELEMENT_THEORY = SGP/SGP4

EPOCH          = 2026-03-17T00:36:13.614912
MEAN_MOTION    = 15.71945163
ECCENTRICITY   = .00051244
INCLINATION    = 51.6245
RA_OF_ASC_NODE = 28.1163
ARG_OF_PERICENTER = 129.6122
MEAN_ANOMALY   = 230.5329

EPHEMERIS_TYPE = 0
CLASSIFICATION_TYPE = U
NORAD_CAT_ID   = 66908
ELEMENT_SET_NO = 999
REV_AT_EPOCH   = 1633
BSTAR          = .11324813E-2
MEAN_MOTION_DOT = .153187E-2
MEAN_MOTION_DDOT = 0

CCSDS_OMM_VERS = 2.0
CREATION_DATE  = 
ORIGINATOR     = 

OBJECT_NAME    = SILVERSAT
OBJECT_ID      = 1998-067XV
CENTER_NAME    = EARTH
REF_FRAME      = TEME
TIME_SYSTEM    = UTC
MEAN_ELEMENT_THEORY = SGP/SGP4

EPOCH          = 2026-03-17T03:19:00.952608
MEAN_MOTION    = 15.75587031
ECCENTRICITY   = .00055709
INCLINATION    = 51.6238
RA_OF_ASC_NODE = 26.6181
ARG_OF_PERICENTER = 131.0135
MEAN_ANOMALY   = 229.1347

EPHEMERIS_TYPE = 0
CLASSIFICATION_TYPE = U
NORAD_CAT_ID   = 66909
ELEMENT_SET_NO = 999
REV_AT_EPOCH   = 1636
BSTAR          = .12396482E-2
MEAN_MOTION_DOT = .197318E-2
MEAN_MOTION_DDOT = 0

CCSDS_OMM_VERS = 2.0
CREATION_DATE  = 
ORIGINATOR     = 

OBJECT_NAME    = ISS OBJECT XW
OBJECT_ID      = 1998-067XW
CENTER_NAME    = EARTH
REF_FRAME      = TEME
TIME_SYSTEM    = UTC
MEAN_ELEMENT_THEORY = SGP/SGP4

EPOCH          = 2026-03-17T02:09:11.231712
MEAN_MOTION    = 15.70910501
ECCENTRICITY   = .00055069
INCLINATION    = 51.6242
RA_OF_ASC_NODE = 27.7936
ARG_OF_PERICENTER = 131.8340
MEAN_ANOMALY   = 228.3129

EPHEMERIS_TYPE = 0
CLASSIFICATION_TYPE = U
NORAD_CAT_ID   = 66910
ELEMENT_SET_NO = 999
REV_AT_EPOCH   = 1634
BSTAR          = .1091936E-2
MEAN_MOTION_DOT = .141178E-2
MEAN_MOTION_DDOT = 0

CCSDS_OMM_VERS = 2.0
CREATION_DATE  = 
ORIGINATOR     = 

OBJECT_NAME    = ISS OBJECT XX
OBJECT_ID      = 1998-067XX
CENTER_NAME    = EARTH
REF_FRAME      = TEME
TIME_SYSTEM    = UTC
MEAN_ELEMENT_THEORY = SGP/SGP4

EPOCH          = 2026-03-17T02:50:02.978592
MEAN_MOTION    = 15.79712162
ECCENTRICITY   = .00070421
INCLINATION    = 51.6215
RA_OF_ASC_NODE = 25.7089
ARG_OF_PERICENTER = 135.4242
MEAN_ANOMALY   = 224.7327

EPHEMERIS_TYPE = 0
CLASSIFICATION_TYPE = U
NORAD_CAT_ID   = 66911
ELEMENT_SET_NO = 999
REV_AT_EPOCH   = 1636
BSTAR          = .13355239E-2
MEAN_MOTION_DOT = .257633E-2
MEAN_MOTION_DDOT = 0

CCSDS_OMM_VERS = 2.0
CREATION_DATE  = 
ORIGINATOR     = 

OBJECT_NAME    = ISS OBJECT XY
OBJECT_ID      = 1998-067XY
CENTER_NAME    = EARTH
REF_FRAME      = TEME
TIME_SYSTEM    = UTC
MEAN_ELEMENT_THEORY = SGP/SGP4

EPOCH          = 2026-03-17T02:51:37.218528
MEAN_MOTION    = 15.65191911
ECCENTRICITY   = .00035942
INCLINATION    = 51.6277
RA_OF_ASC_NODE = 29.5129
ARG_OF_PERICENTER = 133.6570
MEAN_ANOMALY   = 226.4723

EPHEMERIS_TYPE = 0
CLASSIFICATION_TYPE = U
NORAD_CAT_ID   = 66912
ELEMENT_SET_NO = 999
REV_AT_EPOCH   = 1631
BSTAR          = .75960936E-3
MEAN_MOTION_DOT = .76876E-3
MEAN_MOTION_DDOT = 0

